ONEWEB-0012             
1 44057U 19010A   26080.47669001  .00000021  00000+0  20134-4 0  9996
2 44057  87.9015 246.2232 0001478 110.1326 249.9964 13.16595054340028
ONEWEB-0010             
1 44058U 19010B   26080.50202457 -.00000008  00000+0 -53979-4 0  9999
2 44058  87.9016 246.2136 0002094  97.7415 262.3954 13.16594214340077
ONEWEB-0008             
1 44059U 19010C   26080.37536339  .00000078  00000+0  16993-3 0  9993
2 44059  87.9017 246.2361 0001571  91.7369 268.3942 13.16594625340170
ONEWEB-0007             
1 44060U 19010D   26080.56888262 -.00000183  00000+0 -51966-3 0  9999
2 44060  87.8930 276.7142 0001812 104.3189 255.8142 13.15547246339851
ONEWEB-0006             
1 44061U 19010E   26080.57284924 -.00000141  00000+0 -40799-3 0  9992
2 44061  87.8936 276.6697 0001894  95.1414 264.9933 13.15547827339900
ONEWEB-0011             
1 44062U 19010F   26080.54115221  .00000101  00000+0  23552-3 0  9995
2 44062  87.8940 276.6845 0001815  86.5748 273.5590 13.15548116339893
ONEWEB-0013             
1 45131U 20008A   26080.52652136 -.00000611  00000+0 -18104-2 0  9995
2 45131  87.8447  70.5144 0001141 114.2755 245.8491 13.09446757294595
ONEWEB-0017             
1 45132U 20008B   26080.41766349 -.00000534  00000+0 -15664-2 0  9998
2 45132  87.8795  53.7398 0002128  83.8596 276.2773 13.10374353296458
ONEWEB-0020             
1 45133U 20008C   26080.46416144  .00000285  00000+0  78140-3 0  9999
2 45133  87.8797  53.7221 0001903  84.6283 275.5061 13.10370529296855
ONEWEB-0021             
1 45134U 20008D   26080.47908008 -.00000473  00000+0 -13916-2 0  9996
2 45134  87.8790  53.7426 0001865  86.8219 273.3121 13.10371082297169
ONEWEB-0023             
1 45136U 20008F   26080.41350136 -.00000606  00000+0 -17731-2 0  9992
2 45136  87.8793  53.7348 0001721  85.3709 274.7615 13.10372454296588
ONEWEB-0024             
1 45137U 20008G   26080.46249785  .00000385  00000+0  10660-2 0  9991
2 45137  87.8801  53.7117 0001918  83.7568 276.3778 13.10370482296752
ONEWEB-0025             
1 45138U 20008H   26080.46564988  .00000136  00000+0  35051-3 0  9993
2 45138  87.8799  53.7007 0001677  93.1233 267.0087 13.10873925297080
ONEWEB-0026             
1 45139U 20008J   26080.41729189  .00000412  00000+0  11278-2 0  9996
2 45139  87.8887  38.5121 0002010  78.3737 281.7617 13.11415589299604
ONEWEB-0028             
1 45140U 20008K   26080.60292979 -.00000458  00000+0 -13270-2 0  9997
2 45140  87.8880  38.4826 0001319  92.3549 267.7730 13.11416907297140
ONEWEB-0032             
1 45141U 20008L   26080.41932652 -.00000462  00000+0 -13612-2 0  9991
2 45141  87.8792  53.7408 0001422  90.2387 269.8903 13.10375948296806
