[{"OBJECT_NAME":"ONEWEB-0012","OBJECT_ID":"2019-010A","EPOCH":"2026-03-21T11:26:26.016864","MEAN_MOTION":13.16595054,"ECCENTRICITY":0.00014785,"INCLINATION":87.9015,"RA_OF_ASC_NODE":246.2232,"ARG_OF_PERICENTER":110.1326,"MEAN_ANOMALY":249.9964,"EPHEMERIS_TYPE":0,"CLASSIFICATION_TYPE":"U","NORAD_CAT_ID":44057,"ELEMENT_SET_NO":999,"REV_AT_EPOCH":34002,"BSTAR":2.0134165e-5,"MEAN_MOTION_DOT":2.1e-7,"MEAN_MOTION_DDOT":0},{"OBJECT_NAME":"ONEWEB-0010","OBJECT_ID":"2019-010B","EPOCH":"2026-03-21T12:02:54.922848","MEAN_MOTION":13.16594214,"ECCENTRICITY":0.00020948,"INCLINATION":87.9016,"RA_OF_ASC_NODE":246.2136,"ARG_OF_PERICENTER":97.7415,"MEAN_ANOMALY":262.3954,"EPHEMERIS_TYPE":0,"CLASSIFICATION_TYPE":"U","NORAD_CAT_ID":44058,"ELEMENT_SET_NO":999,"REV_AT_EPOCH":34007,"BSTAR":-5.3978714e-5,"MEAN_MOTION_DOT":-8.0e-8,"MEAN_MOTION_DDOT":0},{"OBJECT_NAME":"ONEWEB-0008","OBJECT_ID":"2019-010C","EPOCH":"2026-03-21T09:00:31.396896","MEAN_MOTION":13.16594625,"ECCENTRICITY":0.00015716,"INCLINATION":87.9017,"RA_OF_ASC_NODE":246.2361,"ARG_OF_PERICENTER":91.7369,"MEAN_ANOMALY":268.3942,"EPHEMERIS_TYPE":0,"CLASSIFICATION_TYPE":"U","NORAD_CAT_ID":44059,"ELEMENT_SET_NO":999,"REV_AT_EPOCH":34017,"BSTAR":0.00016993351,"MEAN_MOTION_DOT":7.8e-7,"MEAN_MOTION_DDOT":0},{"OBJECT_NAME":"ONEWEB-0007","OBJECT_ID":"2019-010D","EPOCH":"2026-03-21T13:39:11.458368","MEAN_MOTION":13.15547246,"ECCENTRICITY":0.00018123,"INCLINATION":87.893,"RA_OF_ASC_NODE":276.7142,"ARG_OF_PERICENTER":104.3189,"MEAN_ANOMALY":255.8142,"EPHEMERIS_TYPE":0,"CLASSIFICATION_TYPE":"U","NORAD_CAT_ID":44060,"ELEMENT_SET_NO":999,"REV_AT_EPOCH":33985,"BSTAR":-0.00051966092,"MEAN_MOTION_DOT":-1.83e-6,"MEAN_MOTION_DDOT":0},{"OBJECT_NAME":"ONEWEB-0006","OBJECT_ID":"2019-010E","EPOCH":"2026-03-21T13:44:54.174336","MEAN_MOTION":13.15547827,"ECCENTRICITY":0.00018945,"INCLINATION":87.8936,"RA_OF_ASC_NODE":276.6697,"ARG_OF_PERICENTER":95.1414,"MEAN_ANOMALY":264.9933,"EPHEMERIS_TYPE":0,"CLASSIFICATION_TYPE":"U","NORAD_CAT_ID":44061,"ELEMENT_SET_NO":999,"REV_AT_EPOCH":33990,"BSTAR":-0.00040798517,"MEAN_MOTION_DOT":-1.41e-6,"MEAN_MOTION_DDOT":0},{"OBJECT_NAME":"ONEWEB-0011","OBJECT_ID":"2019-010F","EPOCH":"2026-03-21T12:59:15.550944","MEAN_MOTION":13.15548116,"ECCENTRICITY":0.00018159,"INCLINATION":87.894,"RA_OF_ASC_NODE":276.6845,"ARG_OF_PERICENTER":86.5748,"MEAN_ANOMALY":273.559,"EPHEMERIS_TYPE":0,"CLASSIFICATION_TYPE":"U","NORAD_CAT_ID":44062,"ELEMENT_SET_NO":999,"REV_AT_EPOCH":33989,"BSTAR":0.0002355154,"MEAN_MOTION_DOT":1.01e-6,"MEAN_MOTION_DDOT":0},{"OBJECT_NAME":"ONEWEB-0013","OBJECT_ID":"2020-008A","EPOCH":"2026-03-21T12:38:11.445504","MEAN_MOTION":13.09446757,"ECCENTRICITY":0.00011412,"INCLINATION":87.8447,"RA_OF_ASC_NODE":70.5144,"ARG_OF_PERICENTER":114.2755,"MEAN_ANOMALY":245.8491,"EPHEMERIS_TYPE":0,"CLASSIFICATION_TYPE":"U","NORAD_CAT_ID":45131,"ELEMENT_SET_NO":999,"REV_AT_EPOCH":29459,"BSTAR":-0.0018103689,"MEAN_MOTION_DOT":-6.11e-6,"MEAN_MOTION_DDOT":0},{"OBJECT_NAME":"ONEWEB-0017","OBJECT_ID":"2020-008B","EPOCH":"2026-03-21T10:01:26.125536","MEAN_MOTION":13.10374353,"ECCENTRICITY":0.00021286,"INCLINATION":87.8795,"RA_OF_ASC_NODE":53.7398,"ARG_OF_PERICENTER":83.8596,"MEAN_ANOMALY":276.2773,"EPHEMERIS_TYPE":0,"CLASSIFICATION_TYPE":"U","NORAD_CAT_ID":45132,"ELEMENT_SET_NO":999,"REV_AT_EPOCH":29645,"BSTAR":-0.0015663842,"MEAN_MOTION_DOT":-5.34e-6,"MEAN_MOTION_DDOT":0},{"OBJECT_NAME":"ONEWEB-0020","OBJECT_ID":"2020-008C","EPOCH":"2026-03-21T11:08:23.548416","MEAN_MOTION":13.10370529,"ECCENTRICITY":0.00019037,"INCLINATION":87.8797,"RA_OF_ASC_NODE":53.7221,"ARG_OF_PERICENTER":84.6283,"MEAN_ANOMALY":275.5061,"EPHEMERIS_TYPE":0,"CLASSIFICATION_TYPE":"U","NORAD_CAT_ID":45133,"ELEMENT_SET_NO":999,"REV_AT_EPOCH":29685,"BSTAR":0.00078140178,"MEAN_MOTION_DOT":2.85e-6,"MEAN_MOTION_DDOT":0},{"OBJECT_NAME":"ONEWEB-0021","OBJECT_ID":"2020-008D","EPOCH":"2026-03-21T11:29:52.518912","MEAN_MOTION":13.10371082,"ECCENTRICITY":0.0001865,"INCLINATION":87.879,"RA_OF_ASC_NODE":53.7426,"ARG_OF_PERICENTER":86.8219,"MEAN_ANOMALY":273.3121,"EPHEMERIS_TYPE":0,"CLASSIFICATION_TYPE":"U","NORAD_CAT_ID":45134,"ELEMENT_SET_NO":999,"REV_AT_EPOCH":29716,"BSTAR":-0.001391641,"MEAN_MOTION_DOT":-4.73e-6,"MEAN_MOTION_DDOT":0},{"OBJECT_NAME":"ONEWEB-0023","OBJECT_ID":"2020-008F","EPOCH":"2026-03-21T09:55:26.517504","MEAN_MOTION":13.10372454,"ECCENTRICITY":0.0001721,"INCLINATION":87.8793,"RA_OF_ASC_NODE":53.7348,"ARG_OF_PERICENTER":85.3709,"MEAN_ANOMALY":274.7615,"EPHEMERIS_TYPE":0,"CLASSIFICATION_TYPE":"U","NORAD_CAT_ID":45136,"ELEMENT_SET_NO":999,"REV_AT_EPOCH":29658,"BSTAR":-0.001773116,"MEAN_MOTION_DOT":-6.06e-6,"MEAN_MOTION_DDOT":0},{"OBJECT_NAME":"ONEWEB-0024","OBJECT_ID":"2020-008G","EPOCH":"2026-03-21T11:05:59.814240","MEAN_MOTION":13.10370482,"ECCENTRICITY":0.00019187,"INCLINATION":87.8801,"RA_OF_ASC_NODE":53.7117,"ARG_OF_PERICENTER":83.7568,"MEAN_ANOMALY":276.3778,"EPHEMERIS_TYPE":0,"CLASSIFICATION_TYPE":"U","NORAD_CAT_ID":45137,"ELEMENT_SET_NO":999,"REV_AT_EPOCH":29675,"BSTAR":0.0010660101,"MEAN_MOTION_DOT":3.85e-6,"MEAN_MOTION_DDOT":0},{"OBJECT_NAME":"ONEWEB-0025","OBJECT_ID":"2020-008H","EPOCH":"2026-03-21T11:10:32.149632","MEAN_MOTION":13.10873925,"ECCENTRICITY":0.00016776,"INCLINATION":87.8799,"RA_OF_ASC_NODE":53.7007,"ARG_OF_PERICENTER":93.1233,"MEAN_ANOMALY":267.0087,"EPHEMERIS_TYPE":0,"CLASSIFICATION_TYPE":"U","NORAD_CAT_ID":45138,"ELEMENT_SET_NO":999,"REV_AT_EPOCH":29708,"BSTAR":0.00035050603,"MEAN_MOTION_DOT":1.36e-6,"MEAN_MOTION_DDOT":0},{"OBJECT_NAME":"ONEWEB-0026","OBJECT_ID":"2020-008J","EPOCH":"2026-03-21T10:00:54.019296","MEAN_MOTION":13.11415589,"ECCENTRICITY":0.00020103,"INCLINATION":87.8887,"RA_OF_ASC_NODE":38.5121,"ARG_OF_PERICENTER":78.3737,"MEAN_ANOMALY":281.7617,"EPHEMERIS_TYPE":0,"CLASSIFICATION_TYPE":"U","NORAD_CAT_ID":45139,"ELEMENT_SET_NO":999,"REV_AT_EPOCH":29960,"BSTAR":0.0011277909,"MEAN_MOTION_DOT":4.12e-6,"MEAN_MOTION_DDOT":0},{"OBJECT_NAME":"ONEWEB-0028","OBJECT_ID":"2020-008K","EPOCH":"2026-03-21T14:28:13.133856","MEAN_MOTION":13.11416907,"ECCENTRICITY":0.00013193,"INCLINATION":87.888,"RA_OF_ASC_NODE":38.4826,"ARG_OF_PERICENTER":92.3549,"MEAN_ANOMALY":267.773,"EPHEMERIS_TYPE":0,"CLASSIFICATION_TYPE":"U","NORAD_CAT_ID":45140,"ELEMENT_SET_NO":999,"REV_AT_EPOCH":29714,"BSTAR":-0.0013269857,"MEAN_MOTION_DOT":-4.58e-6,"MEAN_MOTION_DDOT":0},{"OBJECT_NAME":"ONEWEB-0032","OBJECT_ID":"2020-008L","EPOCH":"2026-03-21T10:03:49.811328","MEAN_MOTION":13.10375948,"ECCENTRICITY":0.00014228,"INCLINATION":87.8792,"RA_OF_ASC_NODE":53.7408,"ARG_OF_PERICENTER":90.2387,"MEAN_ANOMALY":269.8903,"EPHEMERIS_TYPE":0,"CLASSIFICATION_TYPE":"U","NORAD_CAT_ID":45141,"ELEMENT_SET_NO":999,"REV_AT_EPOCH":29680,"BSTAR":-0.0013611563,"MEAN_MOTION_DOT":-4.62e-6,"MEAN_MOTION_DDOT":0}]
